{"type": "FeatureCollection", "features": [ {"type": "Feature", "properties": {"norad_id": 39634, "name": "SENTINEL-1A", "group": "resource", "lat": -69.20657834448754, "lon": 164.4040042238972, "alt_km": 703.9036135914021, "timestamp": "2025-12-27T15:27:10.800316+00:00", "meta": {"OBJECT_NAME": "SENTINEL-1A", "OBJECT_ID": "2014-016A", "EPOCH": "2025-12-27T07:43:27.753600", "MEAN_MOTION": 14.59200696, "ECCENTRICITY": 0.00012784, "INCLINATION": 98.1807, "RA_OF_ASC_NODE": 6.3478, "ARG_OF_PERICENTER": 84.2992, "MEAN_ANOMALY": 275.8353, "EPHEMERIS_TYPE": 0, "CLASSIFICATION_TYPE": "U", "NORAD_CAT_ID": 39634, "ELEMENT_SET_NO": 999, "REV_AT_EPOCH": 62495, "BSTAR": 7.2583587e-05, "MEAN_MOTION_DOT": 2.96e-06, "MEAN_MOTION_DDOT": 0}, "tle": {"line1": "1 39634U 14016A   25361.32184900  .00000296  00000+0  72584-4 0  9997", "line2": "2 39634  98.1807   6.3478 0001278  84.2992 275.8353 14.59200696624951"}}, "geometry": {"type": "Point", "coordinates": [164.4040042238972, -69.20657834448754]}}, {"type": "Feature", "properties": {"norad_id": 39731, "name": "KAZEOSAT 1", "group": "resource", "lat": 27.012593944173613, "lon": 68.92605617160525, "alt_km": 750.2638477488545, "timestamp": "2025-12-27T15:27:10.800327+00:00", "meta": {"OBJECT_NAME": "KAZEOSAT 1", "OBJECT_ID": "2014-024A", "EPOCH": "2025-12-27T07:00:01.736064", "MEAN_MOTION": 14.42070699, "ECCENTRICITY": 0.00012584, "INCLINATION": 98.3411, "RA_OF_ASC_NODE": 72.8713, "ARG_OF_PERICENTER": 97.3876, "MEAN_ANOMALY": 262.7457, "EPHEMERIS_TYPE": 0, "CLASSIFICATION_TYPE": "U", "NORAD_CAT_ID": 39731, "ELEMENT_SET_NO": 999, "REV_AT_EPOCH": 61378, "BSTAR": 8.3181365e-05, "MEAN_MOTION_DOT": 2.3e-06, "MEAN_MOTION_DDOT": 0}, "tle": {"line1": "1 39731U 14024A   25361.29168676  .00000230  00000+0  83181-4 0  9995", "line2": "2 39731  98.3411  72.8713 0001258  97.3876 262.7457 14.42070699613785"}}, "geometry": {"type": "Point", "coordinates": [68.92605617160525, 27.012593944173613]}}, {"type": "Feature", "properties": {"norad_id": 39766, "name": "ALOS-2", "group": "resource", "lat": 63.70168890563913, "lon": -67.35859431859615, "alt_km": 623.8553844478174, "timestamp": "2025-12-27T15:27:10.800337+00:00", "meta": {"OBJECT_NAME": "ALOS-2", "OBJECT_ID": "2014-029A", "EPOCH": "2025-12-26T21:04:46.534368", "MEAN_MOTION": 14.79473782, "ECCENTRICITY": 0.00013773, "INCLINATION": 97.9215, "RA_OF_ASC_NODE": 95.5225, "ARG_OF_PERICENTER": 99.181, "MEAN_ANOMALY": 260.9558, "EPHEMERIS_TYPE": 0, "CLASSIFICATION_TYPE": "U", "NORAD_CAT_ID": 39766, "ELEMENT_SET_NO": 999, "REV_AT_EPOCH": 62610, "BSTAR": 0.00017003388, "MEAN_MOTION_DOT": 1.219e-05, "MEAN_MOTION_DDOT": 0}, "tle": {"line1": "1 39766U 14029A   25360.87831637  .00001219  00000+0  17003-3 0  9992", "line2": "2 39766  97.9215  95.5225 0001377  99.1810 260.9558 14.79473782626102"}}, "geometry": {"type": "Point", "coordinates": [-67.35859431859615, 63.70168890563913]}}, {"type": "Feature", "properties": {"norad_id": 40010, "name": "KAZEOSAT 2", "group": "resource", "lat": -29.105290030208526, "lon": -150.5773633689529, "alt_km": 625.1232405863857, "timestamp": "2025-12-27T15:27:10.800347+00:00", "meta": {"OBJECT_NAME": "KAZEOSAT 2", "OBJECT_ID": "2014-033A", "EPOCH": "2025-12-27T07:30:01.755648", "MEAN_MOTION": 14.85190012, "ECCENTRICITY": 0.00089116, "INCLINATION": 97.5497, "RA_OF_ASC_NODE": 204.8743, "ARG_OF_PERICENTER": 157.534, "MEAN_ANOMALY": 202.6268, "EPHEMERIS_TYPE": 0, "CLASSIFICATION_TYPE": "U", "NORAD_CAT_ID": 40010, "ELEMENT_SET_NO": 999, "REV_AT_EPOCH": 62344, "BSTAR": 6.9584198e-05, "MEAN_MOTION_DOT": 5.46e-06, "MEAN_MOTION_DDOT": 0}, "tle": {"line1": "1 40010U 14033A   25361.31252032  .00000546  00000+0  69584-4 0  9991", "line2": "2 40010  97.5497 204.8743 0008911 157.5340 202.6268 14.85190012623446"}}, "geometry": {"type": "Point", "coordinates": [-150.5773633689529, -29.105290030208526]}}, {"type": "Feature", "properties": {"norad_id": 40011, "name": "HODOYOSHI-4", "group": "resource", "lat": -3.434075968947176, "lon": 9.337655794418495, "alt_km": 594.6751441310371, "timestamp": "2025-12-27T15:27:10.800358+00:00", "meta": {"OBJECT_NAME": "HODOYOSHI-4", "OBJECT_ID": "2014-033B", "EPOCH": "2025-12-27T06:33:38.003328", "MEAN_MOTION": 14.87531387, "ECCENTRICITY": 0.00244127, "INCLINATION": 97.5414, "RA_OF_ASC_NODE": 189.441, "ARG_OF_PERICENTER": 152.4378, "MEAN_ANOMALY": 207.814, "EPHEMERIS_TYPE": 0, "CLASSIFICATION_TYPE": "U", "NORAD_CAT_ID": 40011, "ELEMENT_SET_NO": 999, "REV_AT_EPOCH": 62324, "BSTAR": 0.00015269208, "MEAN_MOTION_DOT": 1.341e-05, "MEAN_MOTION_DDOT": 0}, "tle": {"line1": "1 40011U 14033B   25361.27335652  .00001341  00000+0  15269-3 0  9991", "line2": "2 40011  97.5414 189.4410 0024412 152.4378 207.8140 14.87531387623244"}}, "geometry": {"type": "Point", "coordinates": [9.337655794418495, -3.434075968947176]}}, {"type": "Feature", "properties": {"norad_id": 40013, "name": "DEIMOS-2", "group": "resource", "lat": -80.91593361672975, "lon": -66.36725925314943, "alt_km": 596.8232140718483, "timestamp": "2025-12-27T15:27:10.800368+00:00", "meta": {"OBJECT_NAME": "DEIMOS-2", "OBJECT_ID": "2014-033D", "EPOCH": "2025-12-27T06:10:57.650016", "MEAN_MOTION": 14.93032625, "ECCENTRICITY": 0.0001447, "INCLINATION": 97.6049, "RA_OF_ASC_NODE": 236.5788, "ARG_OF_PERICENTER": 110.0788, "MEAN_ANOMALY": 250.0588, "EPHEMERIS_TYPE": 0, "CLASSIFICATION_TYPE": "U", "NORAD_CAT_ID": 40013, "ELEMENT_SET_NO": 999, "REV_AT_EPOCH": 61206, "BSTAR": 0.0001547068, "MEAN_MOTION_DOT": 1.555e-05, "MEAN_MOTION_DDOT": 0}, "tle": {"line1": "1 40013U 14033D   25361.25761169  .00001555  00000+0  15471-3 0  9999", "line2": "2 40013  97.6049 236.5788 0001447 110.0788 250.0588 14.93032625612063"}}, "geometry": {"type": "Point", "coordinates": [-66.36725925314943, -80.91593361672975]}}, {"type": "Feature", "properties": {"norad_id": 40015, "name": "HODOYOSHI-3", "group": "resource", "lat": -34.16407252427225, "lon": 172.04505040886588, "alt_km": 634.3724242575418, "timestamp": "2025-12-27T15:27:10.800378+00:00", "meta": {"OBJECT_NAME": "HODOYOSHI-3", "OBJECT_ID": "2014-033F", "EPOCH": "2025-12-27T05:54:18.088416", "MEAN_MOTION": 14.8485698, "ECCENTRICITY": 0.00326861, "INCLINATION": 97.6206, "RA_OF_ASC_NODE": 166.4512, "ARG_OF_PERICENTER": 198.688, "MEAN_ANOMALY": 161.3138, "EPHEMERIS_TYPE": 0, "CLASSIFICATION_TYPE": "U", "NORAD_CAT_ID": 40015, "ELEMENT_SET_NO": 999, "REV_AT_EPOCH": 62210, "BSTAR": 0.00021539954, "MEAN_MOTION_DOT": 1.795e-05, "MEAN_MOTION_DDOT": 0}, "tle": {"line1": "1 40015U 14033F   25361.24604269  .00001795  00000+0  21540-3 0  9997", "line2": "2 40015  97.6206 166.4512 0032686 198.6880 161.3138 14.84856980622109"}}, "geometry": {"type": "Point", "coordinates": [172.04505040886588, -34.16407252427225]}}, {"type": "Feature", "properties": {"norad_id": 40053, "name": "SPOT 7", "group": "resource", "lat": -17.924261804705964, "lon": -119.26213515520082, "alt_km": 696.242470480036, "timestamp": "2025-12-27T15:27:10.800411+00:00", "meta": {"OBJECT_NAME": "SPOT 7", "OBJECT_ID": "2014-034A", "EPOCH": "2025-12-27T07:58:25.226688", "MEAN_MOTION": 14.60752166, "ECCENTRICITY": 0.00015078, "INCLINATION": 98.0882, "RA_OF_ASC_NODE": 63.0699, "ARG_OF_PERICENTER": 81.0012, "MEAN_ANOMALY": 279.1359, "EPHEMERIS_TYPE": 0, "CLASSIFICATION_TYPE": "U", "NORAD_CAT_ID": 40053, "ELEMENT_SET_NO": 999, "REV_AT_EPOCH": 61204, "BSTAR": 0.00013274264, "MEAN_MOTION_DOT": 6.02e-06, "MEAN_MOTION_DDOT": 0}, "tle": {"line1": "1 40053U 14034A   25361.33223642  .00000602  00000+0  13274-3 0  9993", "line2": "2 40053  98.0882  63.0699 0001507  81.0012 279.1359 14.60752166612044"}}, "geometry": {"type": "Point", "coordinates": [-119.26213515520082, -17.924261804705964]}}, {"type": "Feature", "properties": {"norad_id": 40072, "name": "SKYSAT-B", "group": "resource", "lat": 59.759262614786415, "lon": 140.75482337327446, "alt_km": 595.6028396983256, "timestamp": "2025-12-27T15:27:10.800423+00:00", "meta": {"OBJECT_NAME": "SKYSAT-B", "OBJECT_ID": "2014-037D", "EPOCH": "2025-12-26T19:32:42.335232", "MEAN_MOTION": 14.87377636, "ECCENTRICITY": 0.00068783, "INCLINATION": 98.363, "RA_OF_ASC_NODE": 305.2652, "ARG_OF_PERICENTER": 111.2738, "MEAN_ANOMALY": 248.9212, "EPHEMERIS_TYPE": 0, "CLASSIFICATION_TYPE": "U", "NORAD_CAT_ID": 40072, "ELEMENT_SET_NO": 999, "REV_AT_EPOCH": 62033, "BSTAR": 0.00022123811, "MEAN_MOTION_DOT": 1.939e-05, "MEAN_MOTION_DDOT": 0}, "tle": {"line1": "1 40072U 14037D   25360.81437888  .00001939  00000+0  22124-3 0  9996", "line2": "2 40072  98.3630 305.2652 0006878 111.2738 248.9212 14.87377636620333"}}, "geometry": {"type": "Point", "coordinates": [140.75482337327446, 59.759262614786415]}}, {"type": "Feature", "properties": {"norad_id": 40115, "name": "WORLDVIEW-3 (WV-3)", "group": "resource", "lat": -60.298619340942004, "lon": -120.30237461713664, "alt_km": 622.3975368892525, "timestamp": "2025-12-27T15:27:10.800433+00:00", "meta": {"OBJECT_NAME": "WORLDVIEW-3 (WV-3)", "OBJECT_ID": "2014-048A", "EPOCH": "2025-12-27T04:39:53.972352", "MEAN_MOTION": 14.84681685, "ECCENTRICITY": 0.00021189, "INCLINATION": 97.8762, "RA_OF_ASC_NODE": 73.2985, "ARG_OF_PERICENTER": 126.273, "MEAN_ANOMALY": 233.868, "EPHEMERIS_TYPE": 0, "CLASSIFICATION_TYPE": "U", "NORAD_CAT_ID": 40115, "ELEMENT_SET_NO": 999, "REV_AT_EPOCH": 61638, "BSTAR": 0.00015872169, "MEAN_MOTION_DOT": 1.29e-05, "MEAN_MOTION_DDOT": 0}, "tle": {"line1": "1 40115U 14048A   25361.19437468  .00001290  00000+0  15872-3 0  9994", "line2": "2 40115  97.8762  73.2985 0002118 126.2730 233.8680 14.84681685616384"}}, "geometry": {"type": "Point", "coordinates": [-120.30237461713664, -60.298619340942004]}}]}